NORAD_CAT_ID,OBJECT_NAME,OBJECT_TYPE,EPOCH,MEAN_MOTION,ECCENTRICITY,INCLINATION,RA_OF_ASC_NODE,ARG_OF_PERICENTER,MEAN_ANOMALY,BSTAR,MEAN_MOTION_DOT,MEAN_MOTION_DDOT,TLE_LINE0,TLE_LINE1,TLE_LINE2,SEMIMAJOR_AXIS,PERIOD,APOGEE,PERIGEE,DECAYED
51745.0,STARLINK-3449,PAYLOAD,2024-05-07 05:23:04,15.08845809,0.0001562,53.2176,93.4404,93.5232,266.5938,7.7303e-05,9.43e-06,0.0,0 STARLINK-3449,1 51745U 22016AH  24128.22435611  .00000943  00000-0  77303-4 0  9994,2 51745  53.2176  93.4404 0001562  93.5232 266.5938 15.08845809122192,6917.863,95.437,540.808,538.647,0.0
51745.0,STARLINK-3449,PAYLOAD,2024-05-07 21:16:56,15.08836944,0.0001663,53.2171,90.4682,84.6052,275.513,-5.9385e-05,-1.233e-05,0.0,0 STARLINK-3449,1 51745U 22016AH  24128.88676736 -.00001233  00000-0 -59385-4 0  9996,2 51745  53.2171  90.4682 0001663  84.6052 275.5130 15.08836944123426,6917.89,95.438,540.905,538.604,0.0
51745.0,STARLINK-3449,PAYLOAD,2024-05-08 06:49:15,15.08835609,0.0001523,53.2175,88.6813,92.3167,267.8,-5.9082e-05,-1.228e-05,0.0,0 STARLINK-3449,1 51745U 22016AH  24129.28420874 -.00001228  00000-0 -59082-4 0  9999,2 51745  53.2175  88.6813 0001523  92.3167 267.8000 15.08835609122351,6917.894,95.438,540.812,538.705,0.0
51745.0,STARLINK-3449,PAYLOAD,2024-05-08 14:46:10,15.08840919,0.0001524,53.2181,87.1957,89.6611,270.4555,-6.7743e-06,-3.96e-06,0.0,0 STARLINK-3449,1 51745U 22016AH  24129.61540417 -.00000396  00000-0 -67743-5 0  9991,2 51745  53.2181  87.1957 0001524  89.6611 270.4555 15.08840919122406,6917.878,95.437,540.797,538.688,0.0
51745.0,STARLINK-3449,PAYLOAD,2024-05-09 03:29:15,15.08848424,0.0001351,53.2176,84.8153,95.5661,264.5485,0.00010766,1.426e-05,0.0,0 STARLINK-3449,1 51745U 22016AH  24130.14531351  .00001426  00000-0  10766-3 0  9992,2 51745  53.2176  84.8153 0001351  95.5661 264.5485 15.08848424123610,6917.855,95.437,540.654,538.785,0.0
51745.0,STARLINK-3449,PAYLOAD,2024-05-09 06:40:01,15.08850204,0.0001403,53.2178,84.2204,103.6369,256.478,0.00012464,1.697e-05,0.0,0 STARLINK-3449,1 51745U 22016AH  24130.27779187  .00001697  00000-0  12464-3 0  9994,2 51745  53.2178  84.2204 0001403 103.6369 256.4780 15.08850204122501,6917.849,95.437,540.685,538.744,0.0
51745.0,STARLINK-3449,PAYLOAD,2024-05-10 03:20:02,15.08841278,0.0001394,53.2178,80.3552,99.2132,260.9018,0.00015917,2.246e-05,0.0,0 STARLINK-3449,1 51745U 22016AH  24131.13891747  .00002246  00000-0  15917-3 0  9994,2 51745  53.2178  80.3552 0001394  99.2132 260.9018 15.08841278123765,6917.876,95.437,540.706,538.777,0.0
51745.0,STARLINK-3449,PAYLOAD,2024-05-10 06:30:48,15.08846502,0.0001444,53.2181,79.76,99.8562,260.2593,0.00014739,2.059e-05,0.0,0 STARLINK-3449,1 51745U 22016AH  24131.27139520  .00002059  00000-0  14739-3 0  9996,2 51745  53.2181  79.7600 0001444  99.8562 260.2593 15.08846502122657,6917.861,95.437,540.724,538.727,0.0
51745.0,STARLINK-3449,PAYLOAD,2024-05-11 03:10:44,15.08914223,0.000146,53.2186,75.8916,107.0966,253.0187,0.00058554,9.062e-05,0.0,0 STARLINK-3449,1 51745U 22016AH  24132.13246006  .00009062  00000-0  58554-3 0  9994,2 51745  53.2186  75.8916 0001460 107.0966 253.0187 15.08914223123912,6917.654,95.433,540.529,538.509,0.0
51745.0,STARLINK-3449,PAYLOAD,2024-05-11 20:40:00,15.08871272,0.0003307,53.2179,72.6246,79.572,280.5644,0.00014372,2.001e-05,0.0,0 STARLINK-3449,1 51745U 22016AH  24132.86112151  .00002001  00000-0  14372-3 0  9993,2 51745  53.2179  72.6246 0003307  79.5720 280.5644 15.08871272124020,6917.785,95.436,541.938,537.362,0.0
51745.0,STARLINK-3449,PAYLOAD,2024-05-12 03:01:34,15.08850166,0.0001204,53.2171,71.4357,93.358,266.755,-0.00015803,-2.803e-05,0.0,0 STARLINK-3449,1 51745U 22016AH  24133.12608956 -.00002803  00000-0 -15803-3 0  9998,2 51745  53.2171  71.4357 0001204  93.3580 266.7550 15.08850166124069,6917.849,95.437,540.547,538.881,0.0
51745.0,STARLINK-3449,PAYLOAD,2024-05-12 12:33:54,15.08811041,0.0001295,53.217,69.6489,54.3076,305.8036,-0.00061898,-0.00010117,0.0,0 STARLINK-3449,1 51745U 22016AH  24133.52355104 -.00010117  00000-0 -61898-3 0  9998,2 51745  53.2170  69.6489 0001295  54.3076 305.8036 15.08811041124120,6917.969,95.439,540.73,538.938,0.0
51745.0,STARLINK-3449,PAYLOAD,2024-05-13 12:24:42,15.08858241,0.0001096,53.2188,65.1915,56.1724,303.9372,-0.00053309,-8.766e-05,0.0,0 STARLINK-3449,1 51745U 22016AH  24134.51716405 -.00008766  00000-0 -53309-3 0  9998,2 51745  53.2188  65.1915 0001096  56.1724 303.9372 15.08858241124274,6917.825,95.436,540.448,538.931,0.0
51745.0,STARLINK-3449,PAYLOAD,2024-05-14 12:15:29,15.08838848,0.0001111,53.2177,60.7315,57.3236,302.7864,0.0002103,3.061e-05,0.0,0 STARLINK-3449,1 51745U 22016AH  24135.51076328  .00003061  00000-0  21030-3 0  9999,2 51745  53.2177  60.7315 0001111  57.3236 302.7864 15.08838848123291,6917.884,95.438,540.517,538.98,0.0
51745.0,STARLINK-3449,PAYLOAD,2024-05-15 04:09:21,15.0886784,0.000146,53.2177,57.7581,47.4392,312.6723,0.00071259,0.0001108,0.0,0 STARLINK-3449,1 51745U 22016AH  24136.17316161  .00011080  00000-0  71259-3 0  9992,2 51745  53.2177  57.7581 0001460  47.4392 312.6723 15.08867840124527,6917.795,95.436,540.67,538.65,0.0
51745.0,STARLINK-3449,PAYLOAD,2024-05-15 18:27:50,15.08839961,0.0001489,53.2184,55.0836,39.5661,320.544,-6.4405e-05,-1.313e-05,0.0,0 STARLINK-3449,1 51745U 22016AH  24136.76933446 -.00001313  00000-0 -64405-4 0  9994,2 51745  53.2184  55.0836 0001489  39.5661 320.5440 15.08839961124618,6917.881,95.438,540.776,538.715,0.0
51745.0,STARLINK-3449,PAYLOAD,2024-05-16 00:49:22,15.08848045,0.000118,53.2172,53.8925,65.6597,294.4518,5.2095e-06,-2.05e-06,0.0,0 STARLINK-3449,1 51745U 22016AH  24137.03428854 -.00000205  00000-0  52095-5 0  9998,2 51745  53.2172  53.8925 0001180  65.6597 294.4518 15.08848045124658,6917.856,95.437,540.537,538.904,0.0
51745.0,STARLINK-3449,PAYLOAD,2024-05-16 11:57:04,15.08850222,0.0001275,53.2184,51.8113,74.1148,285.9985,5.3631e-05,5.66e-06,0.0,0 STARLINK-3449,1 51745U 22016AH  24137.49796605  .00000566  00000-0  53631-4 0  9995,2 51745  53.2184  51.8113 0001275  74.1148 285.9985 15.08850222123595,6917.849,95.437,540.596,538.832,0.0
51745.0,STARLINK-3449,PAYLOAD,2024-05-17 00:40:08,15.08853395,0.0001274,53.2184,49.4306,87.0775,273.0363,8.1454e-05,1.009e-05,0.0,0 STARLINK-3449,1 51745U 22016AH  24138.02787928  .00001009  00000-0  81454-4 0  9990,2 51745  53.2184  49.4306 0001274  87.0775 273.0363 15.08853395123671,6917.839,95.437,540.586,538.823,0.0
51745.0,STARLINK-3449,PAYLOAD,2024-05-17 18:09:24,15.08827341,0.0001145,53.217,46.1601,86.373,273.7393,-8.2953e-05,-1.607e-05,0.0,0 STARLINK-3449,1 51745U 22016AH  24138.75653560 -.00001607  00000-0 -82953-4 0  9995,2 51745  53.2170  46.1601 0001145  86.3730 273.7393 15.08827341124918,6917.919,95.438,540.576,538.992,0.0
51745.0,STARLINK-3449,PAYLOAD,2024-05-17 22:55:34,15.08828101,0.0001182,53.2168,45.2671,90.251,269.8617,-5.4443e-05,-1.154e-05,0.0,0 STARLINK-3449,1 51745U 22016AH  24138.95525695 -.00001154  00000-0 -54443-4 0  9994,2 51745  53.2168  45.2671 0001182  90.2510 269.8617 15.08828101123811,6917.917,95.438,540.599,538.964,0.0
51745.0,STARLINK-3449,PAYLOAD,2024-05-18 00:30:57,15.08826481,0.0001276,53.2177,44.9717,89.6997,270.4141,-5.9854e-05,-1.24e-05,0.0,0 STARLINK-3449,1 51745U 22016AH  24139.02149864 -.00001240  00000-0 -59854-4 0  9990,2 51745  53.2177  44.9717 0001276  89.6997 270.4141 15.08826481123823,6917.922,95.438,540.669,538.904,0.0
51745.0,STARLINK-3449,PAYLOAD,2024-05-18 21:10:57,15.08850909,0.0001393,53.2178,41.1056,98.2546,261.8604,0.00036038,5.454e-05,0.0,0 STARLINK-3449,1 51745U 22016AH  24139.88260882  .00005454  00000-0  36038-3 0  9995,2 51745  53.2178  41.1056 0001393  98.2546 261.8604 15.08850909125085,6917.847,95.437,540.676,538.748,0.0
51745.0,STARLINK-3449,PAYLOAD,2024-05-18 22:46:20,15.0887037,0.0001573,53.2177,40.8082,111.4906,248.6254,0.00075431,0.00011747,0.0,0 STARLINK-3449,1 51745U 22016AH  24139.94884287  .00011747  00000-0  75431-3 0  9995,2 51745  53.2177  40.8082 0001573 111.4906 248.6254 15.08870370123960,6917.788,95.436,540.741,538.564,0.0
51745.0,STARLINK-3449,PAYLOAD,2024-05-19 03:32:29,15.08874081,0.0001312,53.2171,39.9149,86.0877,274.0265,0.00091555,0.00014327,0.0,0 STARLINK-3449,1 51745U 22016AH  24140.14756167  .00014327  00000-0  91555-3 0  9996,2 51745  53.2171  39.9149 0001312  86.0877 274.0265 15.08874081125120,6917.776,95.435,540.549,538.734,0.0
51745.0,STARLINK-3449,PAYLOAD,2024-05-19 21:01:45,15.08813264,0.0001636,53.2177,36.6456,91.0592,269.0588,-0.00043711,-7.233e-05,0.0,0 STARLINK-3449,1 51745U 22016AH  24140.87622345 -.00007233  00000-0 -43711-3 0  9997,2 51745  53.2177  36.6456 0001636  91.0592 269.0588 15.08813264125230,6917.962,95.439,540.959,538.695,0.0
51745.0,STARLINK-3449,PAYLOAD,2024-05-20 00:12:31,15.08829451,0.0001532,53.2184,36.0504,89.6899,270.4269,-0.00013335,-2.409e-05,0.0,0 STARLINK-3449,1 51745U 22016AH  24141.00869828 -.00002409  00000-0 -13335-3 0  9991,2 51745  53.2184  36.0504 0001532  89.6899 270.4269 15.08829451125253,6917.913,95.438,540.837,538.718,0.0
51745.0,STARLINK-3449,PAYLOAD,2024-05-20 20:52:32,15.08844881,0.0001459,53.2174,32.1853,83.527,276.5889,4.5759e-05,4.4e-06,0.0,0 STARLINK-3449,1 51745U 22016AH  24141.86981616  .00000440  00000-0  45759-4 0  9992,2 51745  53.2174  32.1853 0001459  83.5270 276.5889 15.08844881125383,6917.865,95.437,540.74,538.721,0.0
51745.0,STARLINK-3449,PAYLOAD,2024-05-21 03:14:04,15.08850061,0.0001676,53.2185,30.9946,86.5393,273.5791,0.00060595,9.371e-05,0.0,0 STARLINK-3449,1 51745U 22016AH  24142.13477774  .00009371  00000-0  60595-3 0  9994,2 51745  53.2185  30.9946 0001676  86.5393 273.5791 15.08850061124299,6917.85,95.437,540.874,538.555,0.0
51745.0,STARLINK-3449,PAYLOAD,2024-05-21 20:43:19,15.08840393,0.0001273,53.2172,27.7264,74.935,285.1783,0.00024509,3.615e-05,0.0,0 STARLINK-3449,1 51745U 22016AH  24142.86342318  .00003615  00000-0  24509-3 0  9999,2 51745  53.2172  27.7264 0001273  74.9350 285.1783 15.08840393125534,6917.879,95.438,540.625,538.864,0.0
